      2.10          N: GNSS NAV DATA                        RINEX VERSION / TYPE
fic2rin                                 11/29/2022 00:17:39 PGM / RUN BY / DATE
                                                            END OF HEADER
15 22 11 28 12  0  0.0 -.862730666995D-05  .318323145621D-11  .000000000000D+00
     .710000000000D+02 -.580000000000D+02  .527700552275D-08 -.113369339797D+00
    -.286474823952D-05  .147217845079D-01  .943802297115D-05  .515364406013D+04
     .129600000000D+06 -.968575477600D-07  .118527550323D+01  .169500708580D-06
     .931011993644D+00  .183343750000D+03  .116347018846D+01 -.849821112746D-08
     .302155443130D-09  .100000000000D+01  .223800000000D+04  .000000000000D+00
     .240000000000D+01  .000000000000D+00 -.107102096081D-07  .710000000000D+02
     .122400000000D+06  .400000000000D+01
9  22 11 28 12  0  0.0 -.261869747192D-03  .579802872380D-11  .000000000000D+00
     .790000000000D+02 -.587187500000D+02  .455804700381D-08  .123262079147D+01
    -.312738120556D-05  .264823297039D-02  .105332583189D-04  .515371843338D+04
     .129600000000D+06 -.298023223877D-07  .129893731400D+01 -.130385160446D-07
     .954832431255D+00  .170687500000D+03  .193726031780D+01 -.789211445253D-08
     .376087094108D-09  .100000000000D+01  .223800000000D+04  .000000000000D+00
     .240000000000D+01  .000000000000D+00  .931322574615D-09  .790000000000D+02
     .122400000000D+06  .400000000000D+01
7  22 11 28 12  0  0.0  .281721353531D-03 -.500222085975D-11  .000000000000D+00
     .590000000000D+02  .793750000000D+01  .495199198463D-08 -.199509742921D+01
     .290572643280D-06  .164785626112D-01  .670365989208D-05  .515360617638D+04
     .129600000000D+06  .197440385818D-06  .237093026944D+01 -.152736902237D-06
     .950430377629D+00  .241500000000D+03 -.223664788518D+01 -.784961268216D-08
     .173578658819D-09  .100000000000D+01  .223800000000D+04  .000000000000D+00
     .240000000000D+01  .000000000000D+00 -.111758708954D-07  .590000000000D+02
     .122400000000D+06  .400000000000D+01
24 22 11 28 12  0  0.0  .397046096623D-04 -.165982783074D-10  .000000000000D+00
     .500000000000D+02  .110312500000D+02  .545344144344D-08 -.108278835898D+01
     .687316060066D-06  .134963021846D-01  .661425292492D-05  .515365964317D+04
     .129600000000D+06  .234693288803D-06  .228335361635D+01  .203028321266D-06
     .933907231408D+00  .236062500000D+03  .865243070607D+00 -.841285042899D-08
     .800033324599D-10  .100000000000D+01  .223800000000D+04  .000000000000D+00
     .240000000000D+01  .000000000000D+00  .279396772385D-08  .500000000000D+02
     .122400000000D+06  .400000000000D+01
25 22 11 28 12  0  0.0  .396966934204D-03  .363797880709D-11  .000000000000D+00
     .250000000000D+02  .193125000000D+02  .454518932538D-08 -.286348424640D+01
     .103376805782D-05  .108556787018D-01  .896491110325D-05  .515358253670D+04
     .129600000000D+06  .651925802231D-07 -.287867724314D+01 -.108033418655D-06
     .955162873728D+00  .201718750000D+03  .100523672947D+01 -.780068207258D-08
    -.418231706744D-09  .100000000000D+01  .223800000000D+04  .000000000000D+00
     .240000000000D+01  .000000000000D+00  .558793544769D-08  .250000000000D+02
     .122400000000D+06  .400000000000D+01
21 22 11 28 12  0  0.0  .155075918883D-03 -.795807864051D-12  .000000000000D+00
     .620000000000D+02  .192187500000D+02  .479377110838D-08  .845540402140D+00
     .519677996635D-06  .245407558978D-01  .157952308655D-05  .515367819023D+04
     .129600000000D+06  .311061739922D-06 -.857512467271D+00 -.543892383575D-06
     .961158756120D+00  .348625000000D+03 -.863923236156D+00 -.869929093181D-08
     .129648257513D-09  .100000000000D+01  .223800000000D+04  .000000000000D+00
     .240000000000D+01  .000000000000D+00 -.102445483208D-07  .620000000000D+02
     .122400000000D+06  .400000000000D+01
27 22 11 28 12  0  0.0  .167208258063D-03 -.954969436862D-11  .000000000000D+00
     .560000000000D+02  .109281250000D+03  .414231540121D-08  .879364397925D+00
     .571459531784D-05  .108310576761D-01  .720471143723D-05  .515366618538D+04
     .129600000000D+06 -.100582838058D-06 -.182418030809D+01  .968575477600D-07
     .969863962796D+00  .246218750000D+03  .683239884598D+00 -.803069165340D-08
    -.131434046184D-09  .100000000000D+01  .223800000000D+04  .000000000000D+00
     .240000000000D+01  .000000000000D+00  .139698386192D-08  .560000000000D+02
     .122400000000D+06  .400000000000D+01
20 22 11 28 12  0  0.0  .467101577669D-03 -.250111042988D-11  .000000000000D+00
     .560000000000D+02 -.105156250000D+03  .499627954367D-08 -.355460844314D+00
    -.538676977158D-05  .473501207307D-02  .412575900555D-05  .515369746017D+04
     .129600000000D+06  .121071934700D-06  .109631556309D+00  .596046447754D-07
     .946172438989D+00  .291937500000D+03 -.301591835434D+01 -.846535261592D-08
    -.357157734196D-10  .100000000000D+01  .223800000000D+04  .000000000000D+00
     .340000000000D+01  .000000000000D+00 -.838190317154D-08  .560000000000D+02
     .122400000000D+06  .400000000000D+01
19 22 11 28 12  0  0.0  .243365298957D-03  .511590769747D-11  .000000000000D+00
     .380000000000D+02  .119437500000D+03  .391516308226D-08  .296664309387D+01
     .612996518612D-05  .901529472321D-02  .780634582043D-05  .515374520111D+04
     .129600000000D+06  .372529029846D-07 -.171502400851D+01  .130385160446D-06
     .975381200336D+00  .231218750000D+03  .221654816904D+01 -.773889378456D-08
     .239295681911D-10  .100000000000D+01  .223800000000D+04  .000000000000D+00
     .240000000000D+01  .000000000000D+00 -.153668224812D-07  .380000000000D+02
     .122400000000D+06  .400000000000D+01
26 22 11 28 12  0  0.0  .237064901739D-03  .102318153949D-11  .000000000000D+00
     .930000000000D+02  .257500000000D+02  .503199531709D-08  .265152955944D+01
     .129640102386D-05  .753978826106D-02  .875443220139D-05  .515359896088D+04
     .129600000000D+06 -.115483999252D-06 -.293096457586D+01 -.111758708954D-07
     .935961462437D+00  .199156250000D+03  .402014164292D+00 -.811926677148D-08
    -.480019994760D-09  .100000000000D+01  .223800000000D+04  .000000000000D+00
     .240000000000D+01  .000000000000D+00  .698491930962D-08  .930000000000D+02
     .122400000000D+06  .400000000000D+01
17 22 11 28 12  0  0.0  .681644305587D-03  .306954461848D-11  .000000000000D+00
     .520000000000D+02  .113406250000D+03  .401731019424D-08  .864674015955D+00
     .578910112381D-05  .138838446001D-01  .821799039841D-05  .515367012024D+04
     .129600000000D+06 -.191852450371D-06 -.175971877738D+01 -.169500708580D-06
     .976437509113D+00  .228187500000D+03 -.145286809246D+01 -.808997983728D-08
    -.196436753808D-10  .100000000000D+01  .223800000000D+04  .000000000000D+00
     .240000000000D+01  .000000000000D+00 -.111758708954D-07  .520000000000D+02
     .122400000000D+06  .400000000000D+01
22 22 11 28 12  0  0.0  .373745337129D-03  .773070496507D-11  .000000000000D+00
     .790000000000D+02 -.295937500000D+02  .461483508355D-08  .624533666723D+00
    -.153668224812D-05  .135646736016D-01  .100843608379D-04  .515375902176D+04
     .129600000000D+06 -.201165676117D-06  .140267599783D+01 -.130385160446D-07
     .961604861285D+00  .190125000000D+03 -.184363445164D+01 -.815355391396D-08
     .286440502825D-09  .100000000000D+01  .223800000000D+04  .000000000000D+00
     .240000000000D+01  .000000000000D+00 -.838190317154D-08  .790000000000D+02
     .122400000000D+06  .400000000000D+01
18 22 11 28 12  0  0.0 -.387248583138D-04 -.143245415529D-10  .000000000000D+00
     .680000000000D+02  .590625000000D+01  .429267880730D-08 -.120723701523D+01
     .206753611565D-06  .296519196127D-02  .216066837311D-05  .515371549034D+04
     .129600000000D+06  .298023223877D-07 -.755206212844D+00  .372529029846D-08
     .972945342256D+00  .342156250000D+03 -.313237273821D+01 -.824141471657D-08
     .138577200868D-09  .100000000000D+01  .223800000000D+04  .000000000000D+00
     .240000000000D+01  .000000000000D+00 -.838190317154D-08  .324000000000D+03
     .122400000000D+06  .400000000000D+01
11 22 11 28 12  0  0.0 -.471873208880D-04 -.659383658785D-11  .000000000000D+00
     .840000000000D+02  .166562500000D+02  .464555064869D-08  .274959102979D+00
     .864267349243D-06  .807323609479D-03  .192597508430D-05  .515367295074D+04
     .129600000000D+06 -.614672899246D-07 -.721701482838D+00  .931322574615D-08
     .964412372241D+00  .345531250000D+03 -.285013947550D+01 -.840927885165D-08
     .110004582132D-09  .100000000000D+01  .223800000000D+04  .000000000000D+00
     .240000000000D+01  .000000000000D+00 -.884756445885D-08  .852000000000D+03
     .122400000000D+06  .400000000000D+01
23 22 11 28 12  0  0.0 -.648200511932D-06  .454747350886D-12  .000000000000D+00
     .119000000000D+03 -.106281250000D+03  .419303179946D-08 -.219749542827D+01
    -.552833080292D-05  .290966755711D-02  .638142228127D-05  .515364426041D+04
     .129600000000D+06 -.577419996262D-07  .244007672653D+00 -.856816768646D-07
     .971565032235D+00  .263468750000D+03  .309058256392D+01 -.796890336538D-08
     .857178562071D-11  .100000000000D+01  .223800000000D+04  .000000000000D+00
     .240000000000D+01  .000000000000D+00 -.838190317154D-08  .631000000000D+03
     .122400000000D+06  .400000000000D+01
14 22 11 28 12  0  0.0 -.765970908105D-04  .568434188608D-11  .000000000000D+00
     .237000000000D+03  .348750000000D+02  .467126600555D-08 -.275290264769D+01
     .182725489140D-05  .241385225672D-02  .900216400623D-05  .515365481949D+04
     .129600000000D+06 -.372529029846D-08 -.283432814279D+01 -.316649675369D-07
     .950935460336D+00  .200937500000D+03 -.304778718937D+01 -.793497338063D-08
    -.467162316328D-09  .100000000000D+01  .223800000000D+04  .000000000000D+00
     .240000000000D+01  .000000000000D+00 -.791624188423D-08  .100500000000D+04
     .122400000000D+06  .400000000000D+01
